{
 "type": "FeatureCollection",
 "features": [
  {
   "type": "Feature",
   "geometry": {
    "type": "Point",
    "coordinates": [
     72.872,
     18.642
    ]
   },
   "properties": {
    "id": "HAB-01",
    "name": "Alibag",
    "panchayath": "Alibag",
    "district": "Raigad",
    "state": "Maharashtra",
    "population": 21000,
    "households": 4753,
    "elderly_pct": 12.7,
    "children_pct": 10.3,
    "disabled_pct": 1.2,
    "fragile_housing_pct": 37.8,
    "no_vehicle_pct": 32.3,
    "dist_hospital_km": 3.6,
    "elevation_m": 12,
    "slope_deg": 3,
    "dist_river_km": 0.9,
    "drainage_index": 0.74,
    "rainfall24_mm": 62.4,
    "hist_events": 3,
    "event_exposure": 0.57,
    "census_note": "Census baseline with documented growth estimate \u2014 treat as estimate"
   }
  },
  {
   "type": "Feature",
   "geometry": {
    "type": "Point",
    "coordinates": [
     73.117,
     18.99
    ]
   },
   "properties": {
    "id": "HAB-02",
    "name": "Panvel",
    "panchayath": "Panvel",
    "district": "Raigad",
    "state": "Maharashtra",
    "population": 46000,
    "households": 10545,
    "elderly_pct": 9.6,
    "children_pct": 18.5,
    "disabled_pct": 2.6,
    "fragile_housing_pct": 26.6,
    "no_vehicle_pct": 34.4,
    "dist_hospital_km": 9.2,
    "elevation_m": 28,
    "slope_deg": 4,
    "dist_river_km": 1.1,
    "drainage_index": 0.76,
    "rainfall24_mm": 51.5,
    "hist_events": 3,
    "event_exposure": 0.44,
    "census_note": "Census baseline with documented growth estimate \u2014 treat as estimate"
   }
  },
  {
   "type": "Feature",
   "geometry": {
    "type": "Point",
    "coordinates": [
     73.325,
     18.91
    ]
   },
   "properties": {
    "id": "HAB-03",
    "name": "Karjat",
    "panchayath": "Karjat",
    "district": "Raigad",
    "state": "Maharashtra",
    "population": 29000,
    "households": 6911,
    "elderly_pct": 9.2,
    "children_pct": 17.3,
    "disabled_pct": 1.5,
    "fragile_housing_pct": 26.0,
    "no_vehicle_pct": 41.9,
    "dist_hospital_km": 6.3,
    "elevation_m": 95,
    "slope_deg": 7,
    "dist_river_km": 1.2,
    "drainage_index": 0.7,
    "rainfall24_mm": 30.8,
    "hist_events": 2,
    "event_exposure": 0.43,
    "census_note": "Census baseline with documented growth estimate \u2014 treat as estimate"
   }
  },
  {
   "type": "Feature",
   "geometry": {
    "type": "Point",
    "coordinates": [
     73.345,
     18.785
    ]
   },
   "properties": {
    "id": "HAB-04",
    "name": "Khopoli",
    "panchayath": "Khalapur",
    "district": "Raigad",
    "state": "Maharashtra",
    "population": 22000,
    "households": 4947,
    "elderly_pct": 11.8,
    "children_pct": 12.4,
    "disabled_pct": 3.0,
    "fragile_housing_pct": 16.5,
    "no_vehicle_pct": 25.9,
    "dist_hospital_km": 6.4,
    "elevation_m": 120,
    "slope_deg": 9,
    "dist_river_km": 0.9,
    "drainage_index": 0.68,
    "rainfall24_mm": 39.5,
    "hist_events": 3,
    "event_exposure": 0.66,
    "census_note": "Census baseline with documented growth estimate \u2014 treat as estimate"
   }
  },
  {
   "type": "Feature",
   "geometry": {
    "type": "Point",
    "coordinates": [
     73.422,
     18.083
    ]
   },
   "properties": {
    "id": "HAB-05",
    "name": "Mahad",
    "panchayath": "Mahad",
    "district": "Raigad",
    "state": "Maharashtra",
    "population": 24000,
    "households": 5314,
    "elderly_pct": 9.1,
    "children_pct": 15.4,
    "disabled_pct": 2.5,
    "fragile_housing_pct": 35.2,
    "no_vehicle_pct": 39.5,
    "dist_hospital_km": 9.4,
    "elevation_m": 24,
    "slope_deg": 4,
    "dist_river_km": 0.4,
    "drainage_index": 0.42,
    "rainfall24_mm": 40.2,
    "hist_events": 6,
    "event_exposure": 0.42,
    "census_note": "Census baseline with documented growth estimate \u2014 treat as estimate"
   }
  },
  {
   "type": "Feature",
   "geometry": {
    "type": "Point",
    "coordinates": [
     73.08,
     18.44
    ]
   },
   "properties": {
    "id": "HAB-06",
    "name": "Roha",
    "panchayath": "Roha",
    "district": "Raigad",
    "state": "Maharashtra",
    "population": 19000,
    "households": 4250,
    "elderly_pct": 10.2,
    "children_pct": 18.6,
    "disabled_pct": 3.0,
    "fragile_housing_pct": 25.7,
    "no_vehicle_pct": 28.5,
    "dist_hospital_km": 9.4,
    "elevation_m": 22,
    "slope_deg": 4,
    "dist_river_km": 0.8,
    "drainage_index": 0.66,
    "rainfall24_mm": 85.1,
    "hist_events": 3,
    "event_exposure": 0.36,
    "census_note": "Census baseline with documented growth estimate \u2014 treat as estimate"
   }
  },
  {
   "type": "Feature",
   "geometry": {
    "type": "Point",
    "coordinates": [
     73.096,
     18.73
    ]
   },
   "properties": {
    "id": "HAB-07",
    "name": "Pen",
    "panchayath": "Pen",
    "district": "Raigad",
    "state": "Maharashtra",
    "population": 14000,
    "households": 3215,
    "elderly_pct": 10.9,
    "children_pct": 12.0,
    "disabled_pct": 1.7,
    "fragile_housing_pct": 16.1,
    "no_vehicle_pct": 45.6,
    "dist_hospital_km": 5.5,
    "elevation_m": 35,
    "slope_deg": 5,
    "dist_river_km": 1.3,
    "drainage_index": 0.7,
    "rainfall24_mm": 71.9,
    "hist_events": 2,
    "event_exposure": 0.5,
    "census_note": "Census baseline with documented growth estimate \u2014 treat as estimate"
   }
  },
  {
   "type": "Feature",
   "geometry": {
    "type": "Point",
    "coordinates": [
     72.942,
     18.878
    ]
   },
   "properties": {
    "id": "HAB-08",
    "name": "Uran",
    "panchayath": "Uran",
    "district": "Raigad",
    "state": "Maharashtra",
    "population": 11000,
    "households": 2508,
    "elderly_pct": 10.4,
    "children_pct": 16.0,
    "disabled_pct": 1.9,
    "fragile_housing_pct": 20.5,
    "no_vehicle_pct": 24.1,
    "dist_hospital_km": 9.4,
    "elevation_m": 9,
    "slope_deg": 2,
    "dist_river_km": 1.0,
    "drainage_index": 0.72,
    "rainfall24_mm": 69.5,
    "hist_events": 1,
    "event_exposure": 0.71,
    "census_note": "Census baseline with documented growth estimate \u2014 treat as estimate"
   }
  },
  {
   "type": "Feature",
   "geometry": {
    "type": "Point",
    "coordinates": [
     73.27,
     18.26
    ]
   },
   "properties": {
    "id": "HAB-09",
    "name": "Mangaon",
    "panchayath": "Mangaon",
    "district": "Raigad",
    "state": "Maharashtra",
    "population": 7200,
    "households": 1644,
    "elderly_pct": 11.4,
    "children_pct": 15.1,
    "disabled_pct": 1.6,
    "fragile_housing_pct": 31.1,
    "no_vehicle_pct": 45.2,
    "dist_hospital_km": 6.6,
    "elevation_m": 45,
    "slope_deg": 6,
    "dist_river_km": 1.1,
    "drainage_index": 0.62,
    "rainfall24_mm": 47.5,
    "hist_events": 3,
    "event_exposure": 0.66,
    "census_note": "Census baseline with documented growth estimate \u2014 treat as estimate"
   }
  },
  {
   "type": "Feature",
   "geometry": {
    "type": "Point",
    "coordinates": [
     73.06,
     18.53
    ]
   },
   "properties": {
    "id": "HAB-10",
    "name": "Nagothana",
    "panchayath": "Roha",
    "district": "Raigad",
    "state": "Maharashtra",
    "population": 3400,
    "households": 744,
    "elderly_pct": 10.0,
    "children_pct": 14.5,
    "disabled_pct": 2.0,
    "fragile_housing_pct": 34.8,
    "no_vehicle_pct": 45.3,
    "dist_hospital_km": 3.1,
    "elevation_m": 18,
    "slope_deg": 4,
    "dist_river_km": 0.7,
    "drainage_index": 0.64,
    "rainfall24_mm": 48.9,
    "hist_events": 2,
    "event_exposure": 0.53,
    "census_note": "Census baseline with documented growth estimate \u2014 treat as estimate"
   }
  },
  {
   "type": "Feature",
   "geometry": {
    "type": "Point",
    "coordinates": [
     73.118,
     18.378
    ]
   },
   "properties": {
    "id": "HAB-11",
    "name": "Kolad",
    "panchayath": "Roha",
    "district": "Raigad",
    "state": "Maharashtra",
    "population": 3600,
    "households": 857,
    "elderly_pct": 10.8,
    "children_pct": 17.4,
    "disabled_pct": 1.4,
    "fragile_housing_pct": 15.8,
    "no_vehicle_pct": 47.6,
    "dist_hospital_km": 3.4,
    "elevation_m": 30,
    "slope_deg": 6,
    "dist_river_km": 0.4,
    "drainage_index": 0.48,
    "rainfall24_mm": 83.7,
    "hist_events": 3,
    "event_exposure": 0.71,
    "census_note": "Census baseline with documented growth estimate \u2014 treat as estimate"
   }
  },
  {
   "type": "Feature",
   "geometry": {
    "type": "Point",
    "coordinates": [
     73.218,
     18.703
    ]
   },
   "properties": {
    "id": "HAB-12",
    "name": "Pali",
    "panchayath": "Pen",
    "district": "Raigad",
    "state": "Maharashtra",
    "population": 6200,
    "households": 1496,
    "elderly_pct": 11.5,
    "children_pct": 15.8,
    "disabled_pct": 2.9,
    "fragile_housing_pct": 27.6,
    "no_vehicle_pct": 36.8,
    "dist_hospital_km": 5.4,
    "elevation_m": 60,
    "slope_deg": 7,
    "dist_river_km": 1.4,
    "drainage_index": 0.66,
    "rainfall24_mm": 44.1,
    "hist_events": 2,
    "event_exposure": 0.43,
    "census_note": "Census baseline with documented growth estimate \u2014 treat as estimate"
   }
  },
  {
   "type": "Feature",
   "geometry": {
    "type": "Point",
    "coordinates": [
     73.02,
     18.19
    ]
   },
   "properties": {
    "id": "HAB-13",
    "name": "Mhasla",
    "panchayath": "Mhasla",
    "district": "Raigad",
    "state": "Maharashtra",
    "population": 4100,
    "households": 947,
    "elderly_pct": 11.2,
    "children_pct": 12.5,
    "disabled_pct": 3.0,
    "fragile_housing_pct": 22.2,
    "no_vehicle_pct": 49.8,
    "dist_hospital_km": 7.4,
    "elevation_m": 26,
    "slope_deg": 5,
    "dist_river_km": 0.9,
    "drainage_index": 0.6,
    "rainfall24_mm": 90.3,
    "hist_events": 2,
    "event_exposure": 0.5,
    "census_note": "Census baseline with documented growth estimate \u2014 treat as estimate"
   }
  },
  {
   "type": "Feature",
   "geometry": {
    "type": "Point",
    "coordinates": [
     72.99,
     18.045
    ]
   },
   "properties": {
    "id": "HAB-14",
    "name": "Shrivardhan",
    "panchayath": "Shrivardhan",
    "district": "Raigad",
    "state": "Maharashtra",
    "population": 5200,
    "households": 1137,
    "elderly_pct": 9.5,
    "children_pct": 16.2,
    "disabled_pct": 3.2,
    "fragile_housing_pct": 34.5,
    "no_vehicle_pct": 24.5,
    "dist_hospital_km": 9.7,
    "elevation_m": 14,
    "slope_deg": 4,
    "dist_river_km": 0.8,
    "drainage_index": 0.58,
    "rainfall24_mm": 59.0,
    "hist_events": 3,
    "event_exposure": 0.45,
    "census_note": "Census baseline with documented growth estimate \u2014 treat as estimate"
   }
  },
  {
   "type": "Feature",
   "geometry": {
    "type": "Point",
    "coordinates": [
     72.987,
     18.028
    ]
   },
   "properties": {
    "id": "HAB-15",
    "name": "Diveagar",
    "panchayath": "Shrivardhan",
    "district": "Raigad",
    "state": "Maharashtra",
    "population": 3100,
    "households": 680,
    "elderly_pct": 10.4,
    "children_pct": 12.2,
    "disabled_pct": 1.7,
    "fragile_housing_pct": 25.6,
    "no_vehicle_pct": 34.0,
    "dist_hospital_km": 2.9,
    "elevation_m": 11,
    "slope_deg": 3,
    "dist_river_km": 0.7,
    "drainage_index": 0.6,
    "rainfall24_mm": 88.0,
    "hist_events": 2,
    "event_exposure": 0.48,
    "census_note": "Census baseline with documented growth estimate \u2014 treat as estimate"
   }
  },
  {
   "type": "Feature",
   "geometry": {
    "type": "Point",
    "coordinates": [
     72.94,
     18.328
    ]
   },
   "properties": {
    "id": "HAB-16",
    "name": "Murud",
    "panchayath": "Murud",
    "district": "Raigad",
    "state": "Maharashtra",
    "population": 5400,
    "households": 1218,
    "elderly_pct": 12.8,
    "children_pct": 16.3,
    "disabled_pct": 3.1,
    "fragile_housing_pct": 25.4,
    "no_vehicle_pct": 42.6,
    "dist_hospital_km": 7.0,
    "elevation_m": 10,
    "slope_deg": 3,
    "dist_river_km": 0.8,
    "drainage_index": 0.62,
    "rainfall24_mm": 32.9,
    "hist_events": 2,
    "event_exposure": 0.73,
    "census_note": "Census baseline with documented growth estimate \u2014 treat as estimate"
   }
  },
  {
   "type": "Feature",
   "geometry": {
    "type": "Point",
    "coordinates": [
     73.39,
     18.17
    ]
   },
   "properties": {
    "id": "HAB-17",
    "name": "Nizampur",
    "panchayath": "Mahad",
    "district": "Raigad",
    "state": "Maharashtra",
    "population": 3600,
    "households": 867,
    "elderly_pct": 9.4,
    "children_pct": 10.9,
    "disabled_pct": 2.0,
    "fragile_housing_pct": 35.3,
    "no_vehicle_pct": 32.4,
    "dist_hospital_km": 9.3,
    "elevation_m": 55,
    "slope_deg": 9,
    "dist_river_km": 1.2,
    "drainage_index": 0.56,
    "rainfall24_mm": 46.1,
    "hist_events": 2,
    "event_exposure": 0.61,
    "census_note": "Census baseline with documented growth estimate \u2014 treat as estimate"
   }
  },
  {
   "type": "Feature",
   "geometry": {
    "type": "Point",
    "coordinates": [
     73.4,
     18.11
    ]
   },
   "properties": {
    "id": "HAB-18",
    "name": "Dasgaon",
    "panchayath": "Mahad",
    "district": "Raigad",
    "state": "Maharashtra",
    "population": 4800,
    "households": 1209,
    "elderly_pct": 11.6,
    "children_pct": 14.8,
    "disabled_pct": 2.0,
    "fragile_housing_pct": 27.7,
    "no_vehicle_pct": 44.8,
    "dist_hospital_km": 4.4,
    "elevation_m": 18,
    "slope_deg": 4,
    "dist_river_km": 0.2,
    "drainage_index": 0.34,
    "rainfall24_mm": 66.8,
    "hist_events": 5,
    "event_exposure": 0.71,
    "census_note": "Census baseline with documented growth estimate \u2014 treat as estimate"
   }
  },
  {
   "type": "Feature",
   "geometry": {
    "type": "Point",
    "coordinates": [
     73.36,
     18.1
    ]
   },
   "properties": {
    "id": "HAB-19",
    "name": "Birwadi",
    "panchayath": "Mahad",
    "district": "Raigad",
    "state": "Maharashtra",
    "population": 2600,
    "households": 608,
    "elderly_pct": 11.8,
    "children_pct": 13.3,
    "disabled_pct": 2.0,
    "fragile_housing_pct": 37.1,
    "no_vehicle_pct": 36.9,
    "dist_hospital_km": 4.6,
    "elevation_m": 70,
    "slope_deg": 14,
    "dist_river_km": 1.0,
    "drainage_index": 0.5,
    "rainfall24_mm": 85.8,
    "hist_events": 3,
    "event_exposure": 0.39,
    "census_note": "Census baseline with documented growth estimate \u2014 treat as estimate"
   }
  },
  {
   "type": "Feature",
   "geometry": {
    "type": "Point",
    "coordinates": [
     73.44,
     18.2
    ]
   },
   "properties": {
    "id": "HAB-20",
    "name": "Pachad",
    "panchayath": "Mahad",
    "district": "Raigad",
    "state": "Maharashtra",
    "population": 2200,
    "households": 511,
    "elderly_pct": 12.1,
    "children_pct": 11.0,
    "disabled_pct": 2.4,
    "fragile_housing_pct": 31.4,
    "no_vehicle_pct": 48.3,
    "dist_hospital_km": 2.8,
    "elevation_m": 130,
    "slope_deg": 16,
    "dist_river_km": 1.1,
    "drainage_index": 0.52,
    "rainfall24_mm": 77.5,
    "hist_events": 3,
    "event_exposure": 0.65,
    "census_note": "Census baseline with documented growth estimate \u2014 treat as estimate"
   }
  },
  {
   "type": "Feature",
   "geometry": {
    "type": "Point",
    "coordinates": [
     72.925,
     18.375
    ]
   },
   "properties": {
    "id": "HAB-21",
    "name": "Kashid",
    "panchayath": "Murud",
    "district": "Raigad",
    "state": "Maharashtra",
    "population": 1800,
    "households": 399,
    "elderly_pct": 12.9,
    "children_pct": 18.9,
    "disabled_pct": 3.2,
    "fragile_housing_pct": 36.8,
    "no_vehicle_pct": 47.4,
    "dist_hospital_km": 4.6,
    "elevation_m": 8,
    "slope_deg": 3,
    "dist_river_km": 0.9,
    "drainage_index": 0.64,
    "rainfall24_mm": 72.7,
    "hist_events": 1,
    "event_exposure": 0.65,
    "census_note": "Census baseline with documented growth estimate \u2014 treat as estimate"
   }
  },
  {
   "type": "Feature",
   "geometry": {
    "type": "Point",
    "coordinates": [
     72.93,
     18.545
    ]
   },
   "properties": {
    "id": "HAB-22",
    "name": "Revdanda",
    "panchayath": "Alibag",
    "district": "Raigad",
    "state": "Maharashtra",
    "population": 2900,
    "households": 670,
    "elderly_pct": 11.2,
    "children_pct": 11.8,
    "disabled_pct": 1.8,
    "fragile_housing_pct": 20.7,
    "no_vehicle_pct": 34.4,
    "dist_hospital_km": 6.0,
    "elevation_m": 9,
    "slope_deg": 3,
    "dist_river_km": 0.6,
    "drainage_index": 0.66,
    "rainfall24_mm": 33.3,
    "hist_events": 2,
    "event_exposure": 0.51,
    "census_note": "Census baseline with documented growth estimate \u2014 treat as estimate"
   }
  },
  {
   "type": "Feature",
   "geometry": {
    "type": "Point",
    "coordinates": [
     72.895,
     18.635
    ]
   },
   "properties": {
    "id": "HAB-23",
    "name": "Thal",
    "panchayath": "Alibag",
    "district": "Raigad",
    "state": "Maharashtra",
    "population": 2400,
    "households": 548,
    "elderly_pct": 10.9,
    "children_pct": 13.9,
    "disabled_pct": 2.1,
    "fragile_housing_pct": 20.0,
    "no_vehicle_pct": 36.4,
    "dist_hospital_km": 6.5,
    "elevation_m": 7,
    "slope_deg": 2,
    "dist_river_km": 0.5,
    "drainage_index": 0.7,
    "rainfall24_mm": 77.9,
    "hist_events": 1,
    "event_exposure": 0.72,
    "census_note": "Census baseline with documented growth estimate \u2014 treat as estimate"
   }
  },
  {
   "type": "Feature",
   "geometry": {
    "type": "Point",
    "coordinates": [
     73.29,
     18.83
    ]
   },
   "properties": {
    "id": "HAB-24",
    "name": "Khalapur",
    "panchayath": "Khalapur",
    "district": "Raigad",
    "state": "Maharashtra",
    "population": 5800,
    "households": 1385,
    "elderly_pct": 10.1,
    "children_pct": 15.0,
    "disabled_pct": 2.6,
    "fragile_housing_pct": 16.2,
    "no_vehicle_pct": 42.7,
    "dist_hospital_km": 7.9,
    "elevation_m": 105,
    "slope_deg": 9,
    "dist_river_km": 1.0,
    "drainage_index": 0.6,
    "rainfall24_mm": 85.5,
    "hist_events": 2,
    "event_exposure": 0.59,
    "census_note": "Census baseline with documented growth estimate \u2014 treat as estimate"
   }
  },
  {
   "type": "Feature",
   "geometry": {
    "type": "Point",
    "coordinates": [
     73.3,
     18.8
    ]
   },
   "properties": {
    "id": "HAB-25",
    "name": "Chowk",
    "panchayath": "Khalapur",
    "district": "Raigad",
    "state": "Maharashtra",
    "population": 4800,
    "households": 1060,
    "elderly_pct": 9.8,
    "children_pct": 14.2,
    "disabled_pct": 2.4,
    "fragile_housing_pct": 21.9,
    "no_vehicle_pct": 35.7,
    "dist_hospital_km": 4.4,
    "elevation_m": 140,
    "slope_deg": 8,
    "dist_river_km": 0.9,
    "drainage_index": 0.62,
    "rainfall24_mm": 69.0,
    "hist_events": 2,
    "event_exposure": 0.55,
    "census_note": "Census baseline with documented growth estimate \u2014 treat as estimate"
   }
  },
  {
   "type": "Feature",
   "geometry": {
    "type": "Point",
    "coordinates": [
     73.275,
     18.815
    ]
   },
   "properties": {
    "id": "HAB-26",
    "name": "Nanivali",
    "panchayath": "Khalapur",
    "district": "Raigad",
    "state": "Maharashtra",
    "population": 950,
    "households": 235,
    "elderly_pct": 11.9,
    "children_pct": 17.8,
    "disabled_pct": 1.5,
    "fragile_housing_pct": 33.4,
    "no_vehicle_pct": 47.2,
    "dist_hospital_km": 6.5,
    "elevation_m": 180,
    "slope_deg": 14,
    "dist_river_km": 0.8,
    "drainage_index": 0.58,
    "rainfall24_mm": 35.2,
    "hist_events": 2,
    "event_exposure": 0.44,
    "census_note": "Census baseline with documented growth estimate \u2014 treat as estimate"
   }
  },
  {
   "type": "Feature",
   "geometry": {
    "type": "Point",
    "coordinates": [
     73.385,
     18.045
    ]
   },
   "properties": {
    "id": "HAB-27",
    "name": "Taliye",
    "panchayath": "Mahad",
    "district": "Raigad",
    "state": "Maharashtra",
    "population": 780,
    "households": 197,
    "elderly_pct": 12.2,
    "children_pct": 11.5,
    "disabled_pct": 2.5,
    "fragile_housing_pct": 33.4,
    "no_vehicle_pct": 61.7,
    "dist_hospital_km": 15.8,
    "elevation_m": 210,
    "slope_deg": 27,
    "dist_river_km": 0.5,
    "drainage_index": 0.26,
    "rainfall24_mm": 53.2,
    "hist_events": 6,
    "event_exposure": 0.87,
    "census_note": "Census baseline with documented growth estimate \u2014 treat as estimate"
   }
  },
  {
   "type": "Feature",
   "geometry": {
    "type": "Point",
    "coordinates": [
     73.335,
     18.815
    ]
   },
   "properties": {
    "id": "HAB-28",
    "name": "Irshalwadi",
    "panchayath": "Khalapur",
    "district": "Raigad",
    "state": "Maharashtra",
    "population": 230,
    "households": 54,
    "elderly_pct": 12.2,
    "children_pct": 17.1,
    "disabled_pct": 2.3,
    "fragile_housing_pct": 64.0,
    "no_vehicle_pct": 57.4,
    "dist_hospital_km": 15.2,
    "elevation_m": 1128,
    "slope_deg": 33,
    "dist_river_km": 1.6,
    "drainage_index": 0.3,
    "rainfall24_mm": 82.0,
    "hist_events": 4,
    "event_exposure": 0.79,
    "census_note": "Census baseline with documented growth estimate \u2014 treat as estimate"
   }
  },
  {
   "type": "Feature",
   "geometry": {
    "type": "Point",
    "coordinates": [
     73.44,
     18.22
    ]
   },
   "properties": {
    "id": "HAB-29",
    "name": "Ambemachi",
    "panchayath": "Mahad",
    "district": "Raigad",
    "state": "Maharashtra",
    "population": 640,
    "households": 143,
    "elderly_pct": 12.6,
    "children_pct": 12.6,
    "disabled_pct": 2.2,
    "fragile_housing_pct": 52.5,
    "no_vehicle_pct": 66.7,
    "dist_hospital_km": 16.8,
    "elevation_m": 780,
    "slope_deg": 24,
    "dist_river_km": 1.2,
    "drainage_index": 0.38,
    "rainfall24_mm": 96.0,
    "hist_events": 4,
    "event_exposure": 0.69,
    "census_note": "Census baseline with documented growth estimate \u2014 treat as estimate"
   }
  },
  {
   "type": "Feature",
   "geometry": {
    "type": "Point",
    "coordinates": [
     73.433,
     18.232
    ]
   },
   "properties": {
    "id": "HAB-30",
    "name": "Hirkaniwadi",
    "panchayath": "Mahad",
    "district": "Raigad",
    "state": "Maharashtra",
    "population": 410,
    "households": 102,
    "elderly_pct": 13.5,
    "children_pct": 18.0,
    "disabled_pct": 2.8,
    "fragile_housing_pct": 41.8,
    "no_vehicle_pct": 61.9,
    "dist_hospital_km": 21.0,
    "elevation_m": 800,
    "slope_deg": 26,
    "dist_river_km": 1.3,
    "drainage_index": 0.36,
    "rainfall24_mm": 107.7,
    "hist_events": 3,
    "event_exposure": 0.9,
    "census_note": "Census baseline with documented growth estimate \u2014 treat as estimate"
   }
  },
  {
   "type": "Feature",
   "geometry": {
    "type": "Point",
    "coordinates": [
     73.44,
     18.02
    ]
   },
   "properties": {
    "id": "HAB-31",
    "name": "Sakhar Sutar Wadi",
    "panchayath": "Poladpur",
    "district": "Raigad",
    "state": "Maharashtra",
    "population": 520,
    "households": 113,
    "elderly_pct": 11.5,
    "children_pct": 12.4,
    "disabled_pct": 1.6,
    "fragile_housing_pct": 31.5,
    "no_vehicle_pct": 76.3,
    "dist_hospital_km": 18.7,
    "elevation_m": 260,
    "slope_deg": 29,
    "dist_river_km": 0.7,
    "drainage_index": 0.32,
    "rainfall24_mm": 109.4,
    "hist_events": 4,
    "event_exposure": 0.85,
    "census_note": "Census baseline with documented growth estimate \u2014 treat as estimate"
   }
  },
  {
   "type": "Feature",
   "geometry": {
    "type": "Point",
    "coordinates": [
     73.465,
     17.988
    ]
   },
   "properties": {
    "id": "HAB-32",
    "name": "Poladpur",
    "panchayath": "Poladpur",
    "district": "Raigad",
    "state": "Maharashtra",
    "population": 6200,
    "households": 1525,
    "elderly_pct": 12.0,
    "children_pct": 16.1,
    "disabled_pct": 1.9,
    "fragile_housing_pct": 30.6,
    "no_vehicle_pct": 46.3,
    "dist_hospital_km": 2.2,
    "elevation_m": 180,
    "slope_deg": 12,
    "dist_river_km": 0.7,
    "drainage_index": 0.5,
    "rainfall24_mm": 61.7,
    "hist_events": 4,
    "event_exposure": 0.57,
    "census_note": "Census baseline with documented growth estimate \u2014 treat as estimate"
   }
  },
  {
   "type": "Feature",
   "geometry": {
    "type": "Point",
    "coordinates": [
     73.435,
     17.955
    ]
   },
   "properties": {
    "id": "HAB-33",
    "name": "Bhira",
    "panchayath": "Poladpur",
    "district": "Raigad",
    "state": "Maharashtra",
    "population": 2900,
    "households": 732,
    "elderly_pct": 15.0,
    "children_pct": 12.2,
    "disabled_pct": 2.6,
    "fragile_housing_pct": 57.2,
    "no_vehicle_pct": 57.9,
    "dist_hospital_km": 17.3,
    "elevation_m": 95,
    "slope_deg": 21,
    "dist_river_km": 0.6,
    "drainage_index": 0.44,
    "rainfall24_mm": 83.8,
    "hist_events": 3,
    "event_exposure": 0.95,
    "census_note": "Census baseline with documented growth estimate \u2014 treat as estimate"
   }
  }
 ]
}